STARLINK-5346           
1 56518U 23065R   25216.76514338  .00004044  00000+0  31410-3 0  9997
2 56518  43.0031 309.0519 0001187 262.7883  97.2825 15.02557662123219
STARLINK-6313           
1 56519U 23065S   25216.55574225 -.00001232  00000+0 -76133-4 0  9996
2 56519  43.0042 310.0614 0001198 265.0520  95.0186 15.02527773123188
STARLINK-6344           
1 56520U 23065T   25216.69535378 -.00000063  00000+0  10406-4 0  9990
2 56520  43.0044 309.3876 0001514 268.7241  91.3428 15.02533618123201
STARLINK-6333           
1 56521U 23065U   25216.59890149  .00000477  00000+0  50409-4 0  9995
2 56521  43.0033 309.5235 0001235 270.3742  89.6959 15.02539358123190
STARLINK-6327           
1 56522U 23065V   25216.75627857  .00000211  00000+0  30746-4 0  9996
2 56522  43.0054 308.9851 0002426 283.8263  76.2310 15.02535206123215
STARLINK-6328           
1 56523U 23065W   25215.67265580  .00001189  00000+0  10306-3 0  9992
2 56523  43.0050 314.6139 0001683 242.8970 117.1701 15.02531960123839
STARLINK-6323           
1 56524U 23065X   25216.61222723 -.00000086  00000+0  87391-5 0  9996
2 56524  43.0046 309.6204 0001379 259.0840 100.9847 15.02535035123197
STARLINK-6329           
1 56525U 23065Y   25216.59668373  .00000683  00000+0  65616-4 0  9996
2 56525  43.0043 309.5127 0001372 267.7166  92.3520 15.02538186123976
STARLINK-6317           
1 56526U 23065Z   25216.27317894 -.00000812  00000+0 -45040-4 0  9996
2 56526  43.0072 311.3783 0002109 273.0041  87.0560 15.02535480123923
STARLINK-6335           
1 56527U 23065AA  25216.66427387 -.00001428  00000+0 -90666-4 0  9997
2 56527  43.0079 309.1539 0002138 273.1152  86.9446 15.02535327123203
STARLINK-6337           
1 56528U 23065AB  25216.66649002  .00000722  00000+0  68499-4 0  9991
2 56528  43.0042 309.1675 0001233 273.6625  86.4077 15.02538726123201
STARLINK-6307           
1 56529U 23065AC  25216.52281427  .00000151  00000+0  26291-4 0  9990
2 56529  43.0045 297.6578 0001486 264.4450  95.6222 15.02532195124100
STARLINK-6318           
1 56530U 23065AD  25216.24494207  .00000151  00000+0  26251-4 0  9999
2 56530  43.0037 285.9949 0001366 279.6634  80.4054 15.02541800124214
STARLINK-6280           
1 56531U 23065AE  25216.51948424 -.00000315  00000+0 -82710-5 0  9992
2 56531  43.0039 297.6331 0001467 265.8630  94.2044 15.02535644124106
STARLINK-6319           
1 56532U 23065AF  25216.72890129 -.00000328  00000+0 -91935-5 0  9997
2 56532  43.0035 296.6210 0001246 273.4221  86.6479 15.02541965123350
STARLINK-6310           
1 56533U 23065AG  25216.57929815  .00001130  00000+0  98735-4 0  9990
2 56533  43.0037 297.2176 0001289 265.5959  94.4736 15.02537870123339
STARLINK-6308           
1 56534U 23065AH  25216.59261715  .00001218  00000+0  10523-3 0  9996
2 56534  43.0041 297.3192 0001282 277.2594  82.8103 15.02536877124114
STARLINK-6309           
1 56535U 23065AJ  25216.77822909  .00001627  00000+0  13553-3 0  9995
2 56535  43.0057 322.1633 0002331 267.7750  92.2825 15.02535602123067
STARLINK-6312           
1 56536U 23065AK  25216.30621910 -.00000559  00000+0 -26310-4 0  9995
2 56536  43.0021 324.6400 0001301 263.9808  96.0886 15.02547772123774
STARLINK-6311           
1 56537U 23065AL  25216.77489025 -.00000001  00000+0  15016-4 0  9998
2 56537  43.0047 322.1390 0001267 274.6411  85.4286 15.02539017123065
STARLINK-6314           
1 56538U 23065AM  25216.24358139  .00000406  00000+0  45152-4 0  9994
2 56538  43.0040 298.9978 0001251 271.3523  88.7176 15.02535479124065
STARLINK-6135           
1 56539U 23065AN  25216.29955642  .00000714  00000+0  67905-4 0  9994
2 56539  43.0042 324.5997 0001439 270.3922  89.6756 15.02536378123775
STARLINK-6136           
1 56540U 23065AP  25216.29623067 -.00000522  00000+0 -23571-4 0  9999
2 56540  43.0049 324.5713 0001663 269.4503  90.6149 15.02537537123779
STARLINK-6249           
1 56541U 23065AQ  25216.76268371 -.00000506  00000+0 -22393-4 0  9998
2 56541  43.0054 322.0472 0001488 264.4887  95.5785 15.02539020123067
STARLINK-6266           
1 56542U 23065AR  25216.36936593 -.00000132  00000+0  52970-5 0  9992
2 56542  43.0051 324.2566 0001218 272.7945  87.2758 15.02535973123781
STARLINK-6226           
1 56544U 23065AT  25216.65403108 -.00000468  00000+0 -19606-4 0  9998
2 56544  43.0055 322.1028 0001207 274.7958  85.2746 15.02538559123059
STARLINK-6086           
1 56545U 23065AU  25216.35271936  .00001786  00000+0  14729-3 0  9990
2 56545  43.0055 324.1310 0001368 254.8755 105.1936 15.02517343123789
STARLINK-6187           
1 56546U 23065AV  25216.36048742 -.00000276  00000+0 -53283-5 0  9994
2 56546  43.0036 324.1906 0001120 269.3624  90.7090 15.02538494123782
STARLINK-6291           
1 56547U 23065AW  25216.31942062  .00000090  00000+0  21731-4 0  9992
2 56547  43.0042 323.8874 0001171 273.4848  86.5861 15.02535062123787
STARLINK-6244           
1 56548U 23065AX  25216.28956739  .00000372  00000+0  42635-4 0  9994
2 56548  43.0046 324.5158 0001192 269.1945  90.8761 15.02535267123771
STARLINK-6263           
1 56549U 23065AY  25216.67289432  .00000622  00000+0  61141-4 0  9998
2 56549  43.0046 322.2319 0001258 270.5616  89.5083 15.02537095123054
STARLINK-6255           
1 56550U 23065AZ  25216.34938594  .00000387  00000+0  43763-4 0  9992
2 56550  43.0058 324.1052 0001562 268.1640  91.9024 15.02536202123783
STARLINK-6199           
1 56551U 23065BA  25216.66845391  .00000375  00000+0  42819-4 0  9998
2 56551  43.0047 322.1977 0001272 268.6179  91.4517 15.02538146123057
STARLINK-5802           
1 56552U 23065BB  25216.60864097 -.00000208  00000+0 -31278-6 0  9993
2 56552  43.0052 322.6099 0001411 270.8791  89.1889 15.02535661123048
STARLINK-6074           
1 56553U 23065BC  25216.59865548 -.00000169  00000+0  25816-5 0  9999
2 56553  43.0053 322.5385 0001410 270.1554  89.9126 15.02530485123823
STARLINK-6295           
1 56554U 23065BD  25216.66956974  .00000148  00000+0  26023-4 0  9998
2 56554  43.0051 322.2070 0001436 267.7951  92.2727 15.02533460123056
STARLINK-6252           
1 56555U 23065BE  25216.59199848 -.00002049  00000+0 -13663-3 0  9999
2 56555  43.0043 322.4862 0001649 278.5272  81.5384 15.02538259123827
STARLINK-5302           
1 56556U 23065BF  25216.72827641  .00000041  00000+0  18126-4 0  9992
2 56556  43.0042 321.7890 0001691 263.5780  96.4870 15.02533846123063
STARLINK-6265           
1 56557U 23065BG  25215.99035977  .00000417  00000+0  45913-4 0  9995
2 56557  43.0043 325.7113 0001438 253.1893 106.8792 15.02533584123738
STARLINK-6286           
1 56558U 23065BH  25216.75824565  .00007147  00000+0  54409-3 0  9996
2 56558  43.0049 321.9975 0001681 259.7883 100.2769 15.02500947123065
STARLINK-30122          
1 56688U 23067A   25216.70620618  .00001226  00000+0  10582-3 0  9996
2 56688  43.0051  14.0134 0001450 278.2081  81.8597 15.02525879122163
STARLINK-30129          
1 56689U 23067B   25216.49678668  .00000131  00000+0  24780-4 0  9991
2 56689  43.0049  15.0256 0001395 256.5812 103.4875 15.02538672122981
STARLINK-30124          
1 56690U 23067C   25216.49345639  .00001293  00000+0  11081-3 0  9991
2 56690  43.0050  15.0122 0001734 264.0905  95.9739 15.02533202122989
STARLINK-30036          
1 56692U 23067E   25216.75271029  .00000652  00000+0  63327-4 0  9992
2 56692  43.0052  13.5365 0001452 263.9511  96.1166 15.02537545122175
STARLINK-30067          
1 56693U 23067F   25216.48014164  .00003788  00000+0  29546-3 0  9995
2 56693  43.0056  14.9307 0001225 264.7226  95.3477 15.02519281122983
STARLINK-30126          
1 56694U 23067G   25216.48346972  .00000784  00000+0  73141-4 0  9995
2 56694  43.0039  14.9548 0001324 266.5391  93.5300 15.02533782122982
STARLINK-30121          
1 56695U 23067H   25216.47680881  .00000067  00000+0  20068-4 0  9999
2 56695  43.0039  14.8868 0001170 269.5994  90.4714 15.02535976122980
STARLINK-30130          
1 56697U 23067K   25216.78255213  .00000142  00000+0  25597-4 0  9998
2 56697  43.0046  12.8960 0001320 273.5704  86.4988 15.02540021122189
STARLINK-30068          
1 56698U 23067L   25216.39061162  .00000037  00000+0  17818-4 0  9994
2 56698  43.0056   2.1261 0001580 262.8464  97.2199 15.02535640122869
STARLINK-30127          
1 56699U 23067M   25216.80587298  .00001912  00000+0  15663-3 0  9992
2 56699  43.0052  13.0740 0001394 259.9359 100.1326 15.02528526122188
STARLINK-30053          
1 56700U 23067N   25216.47015005  .00000283  00000+0  36030-4 0  9992
2 56700  43.0047  14.8503 0001586 261.5414  98.5248 15.02534979122985
STARLINK-30125          
1 56701U 23067P   25216.46682186 -.00000008  00000+0  14488-4 0  9991
2 56701  43.0049  14.8297 0001362 263.1043  96.9644 15.02535680122988
STARLINK-30117          
1 56702U 23067Q   25216.70288152  .00003803  00000+0  29644-3 0  9998
2 56702  43.0046  13.9558 0001124 262.7254  97.3461 15.02539196122169
STARLINK-30132          
1 56703U 23067R   25216.79587750  .00000660  00000+0  63931-4 0  9990
2 56703  43.0055  12.9922 0001234 270.4580  89.6121 15.02540359122186
STARLINK-30066          
1 56704U 23067S   25216.50999452 -.00000613  00000+0 -30333-4 0  9996
2 56704  43.0050  14.2725 0001285 246.1456 113.9251 15.02546399122990
STARLINK-30080          
1 56705U 23067T   25216.45376268 -.00008907  00000+0 -64427-3 0  9999
2 56705  43.0038   1.8026 0001523 271.8752  88.1916 15.02582428123133
STARLINK-30079          
1 56706U 23067U   25215.79205515 -.00000244  00000+0 -29951-5 0  9993
2 56706  43.0043  18.3637 0001357 263.3382  96.7305 15.02534506122030
STARLINK-30070          
1 56707U 23067V   25216.12777631 -.00000102  00000+0  75451-5 0  9993
2 56707  43.0055  16.5836 0001126 251.8654 108.2065 15.02535114122930
STARLINK-30071          
1 56708U 23067W   25216.51331981  .00000520  00000+0  53581-4 0  9993
2 56708  43.0051  14.3142 0001352 263.2281  96.8407 15.02536111122993
